NORAD_CAT_ID,OBJECT_NAME,OBJECT_TYPE,EPOCH,MEAN_MOTION,ECCENTRICITY,INCLINATION,RA_OF_ASC_NODE,ARG_OF_PERICENTER,MEAN_ANOMALY,BSTAR,MEAN_MOTION_DOT,MEAN_MOTION_DDOT,TLE_LINE0,TLE_LINE1,TLE_LINE2,SEMIMAJOR_AXIS,PERIOD,APOGEE,PERIGEE,DECAYED
53857.0,STARLINK-4809,PAYLOAD,2022-11-29 06:00:00,15.49884043,8.32e-05,53.2137,267.3718,76.9294,82.3344,0.0010914,0.00061981,0.0,0 STARLINK-4809,1 53857U 22114AR  22333.25001157  .00061981  00000-0  10914-2 0  9994,2 53857  53.2137 267.3718 0000832  76.9294  82.3344 15.49884043 11771,6795.2019999999975,92.91,417.632,416.502,0.0
53857.0,STARLINK-4809,PAYLOAD,2022-11-29 14:00:01,15.49968972,8.740000000000001e-05,53.2152,265.7764,90.0272,130.2344,-0.0021326,-0.00120003,0.0,0 STARLINK-4809,1 53857U 22114AR  22333.58335648 -.00120003  00000-0 -21326-2 0  9997,2 53857  53.2152 265.7764 0000874  90.0272 130.2344 15.49968972  1305,6794.954000000002,92.905,417.413,416.225,0.0
53857.0,STARLINK-4809,PAYLOAD,2022-11-29 22:00:00,15.50038325,0.0001171,53.2168,264.1831,96.2754,184.8796,-0.018043,-0.0094495,0.0,0 STARLINK-4809,1 53857U 22114AR  22333.91667824 -.00944950  00000-0 -18043-1 0  9994,2 53857  53.2168 264.1831 0001171  96.2754 184.8796 15.50038325 11875,6794.751,92.901,417.412,415.82,0.0
53857.0,STARLINK-4809,PAYLOAD,2022-11-30 06:00:00,15.49369078,0.0001057,53.2175,262.5924,89.5574,252.2909,-0.022383,-0.0112536,0.0,0 STARLINK-4809,1 53857U 22114AR  22334.25001157 -.01125360  00000-0 -22383-1 0  9992,2 53857  53.2175 262.5924 0001057  89.5574 252.2909 15.49369078 11928,6796.708000000001,92.941,419.291,417.854,0.0
53857.0,STARLINK-4809,PAYLOAD,2022-11-30 14:00:01,15.48555882,0.0001028,53.2175,260.9996,88.6284,313.0832,-0.023065,-0.01143215,0.0,0 STARLINK-4809,1 53857U 22114AR  22334.58335648 -.01143215  00000-0 -23065-1 0  9990,2 53857  53.2175 260.9996 0001028  88.6284 313.0832 15.48555882  1306,6799.087,92.99,421.651,420.253,0.0
53857.0,STARLINK-4809,PAYLOAD,2022-11-30 22:00:00,15.47743777,0.0001167,53.2176,259.4112,84.7541,15.7118,-0.023787,-0.01145632,0.0,0 STARLINK-4809,1 53857U 22114AR  22334.91667824 -.01145632  00000-0 -23787-1 0  9997,2 53857  53.2176 259.4112 0001167  84.7541  15.7118 15.47743777 12033,6801.465,93.039,424.124,422.536,0.0
53857.0,STARLINK-4809,PAYLOAD,2022-12-01 14:00:01,15.461141,0.000129,53.2174,256.2387,101.6894,113.4833,-0.02507,-0.01141197,0.0,0 STARLINK-4809,1 53857U 22114AR  22335.58334491 -.01141197  00000-0 -25070-1 0  9991,2 53857  53.2174 256.2387 0001290 101.6894 113.4833 15.46114100  1306,6806.243,93.137,428.986,427.23,0.0
53857.0,STARLINK-4809,PAYLOAD,2022-12-01 22:00:00,15.45252995,0.0001305,53.2169,254.6558,105.0831,165.9997,-0.024267,-0.01062854,0.0,0 STARLINK-4809,1 53857U 22114AR  22335.91667824 -.01062854  00000-0 -24267-1 0  9996,2 53857  53.2169 254.6558 0001305 105.0831 165.9997 15.45252995  1305,6808.772,93.189,431.525,429.74800000000016,0.0
53857.0,STARLINK-4809,PAYLOAD,2022-12-02 00:00:00,15.45092615,0.0001144,53.217,254.2611,100.0768,274.802,-0.025819,-0.01135085,0.0,0 STARLINK-4809,1 53857U 22114AR  22336.00001157 -.01135085  00000-0 -25819-1 0  9999,2 53857  53.2170 254.2611 0001144 100.0768 274.8020 15.45092615 12195,6809.243,93.198,431.887,430.329,0.0
53857.0,STARLINK-4809,PAYLOAD,2022-12-02 14:00:01,15.4369357,0.0001025,53.2172,251.4955,73.2048,306.6832,-0.028009,-0.01170405,0.0,0 STARLINK-4809,1 53857U 22114AR  22336.58334491 -.01170405  00000-0 -28009-1 0  9991,2 53857  53.2172 251.4955 0001025  73.2048 306.6832 15.43693570  1308,6813.356,93.283,435.92,434.523,0.0
53857.0,STARLINK-4809,PAYLOAD,2022-12-02 22:00:00,15.42868629,0.0001128,53.217,249.9184,79.7664,353.0791,-0.028378,-0.01154563,0.0,0 STARLINK-4809,1 53857U 22114AR  22336.91667824 -.01154563  00000-0 -28378-1 0  9993,2 53857  53.2170 249.9184 0001128  79.7664 353.0791 15.42868629  1309,6815.785,93.333,438.419,436.881,0.0
53857.0,STARLINK-4809,PAYLOAD,2022-12-03 00:00:00,15.42656004,0.0001278,53.2171,249.5251,80.404,95.5308,-0.028232,-0.01141623,0.0,0 STARLINK-4809,1 53857U 22114AR  22337.00001157 -.01141623  00000-0 -28232-1 0  9997,2 53857  53.2171 249.5251 0001278  80.4040  95.5308 15.42656004 12355,6816.411,93.346,439.147,437.405,0.0
53857.0,STARLINK-4809,PAYLOAD,2022-12-03 14:00:01,15.41235022,0.0001344,53.2173,246.7694,74.8163,101.0039,-0.029714,-0.0114513,0.0,0 STARLINK-4809,1 53857U 22114AR  22337.58334491 -.01145130  00000-0 -29714-1 0  9993,2 53857  53.2173 246.7694 0001344  74.8163 101.0039 15.41235022  1303,6820.6,93.432,443.382,441.549,0.0
53857.0,STARLINK-4809,PAYLOAD,2022-12-03 22:00:00,15.40438281,0.0001363,53.2173,245.1984,93.9846,131.8453,-0.03116,-0.01167219,0.0,0 STARLINK-4809,1 53857U 22114AR  22337.91667824 -.01167219  00000-0 -31160-1 0  9999,2 53857  53.2173 245.1984 0001363  93.9846 131.8453 15.40438281 12493,6822.9519999999975,93.48,445.747,443.887,0.0
53857.0,STARLINK-4809,PAYLOAD,2022-12-04 14:00:01,15.38799653,0.0001087,53.2174,242.061,73.2711,249.6692,-0.032436,-0.01152151,0.0,0 STARLINK-4809,1 53857U 22114AR  22338.58334491 -.01152151  00000-0 -32436-1 0  9990,2 53857  53.2174 242.0610 0001087  73.2711 249.6692 15.38799653  1302,6827.795,93.579,450.402,448.918,0.0
53857.0,STARLINK-4809,PAYLOAD,2022-12-04 22:00:00,15.380022,0.000106,53.2174,240.4958,89.3002,280.7171,-0.033994,-0.01174129,0.0,0 STARLINK-4809,1 53857U 22114AR  22338.91667824 -.01174129  00000-0 -33994-1 0  9995,2 53857  53.2174 240.4958 0001060  89.3002 280.7171 15.38002200  1304,6830.155,93.628,452.744,451.296,0.0
53857.0,STARLINK-4809,PAYLOAD,2022-12-05 06:00:00,15.37190564,0.0001193,53.2167,238.9333,70.2875,345.8346,-0.034926,-0.01174711,0.0,0 STARLINK-4809,1 53857U 22114AR  22339.25001157 -.01174711  00000-0 -34926-1 0  9997,2 53857  53.2167 238.9333 0001193  70.2875 345.8346 15.37190564 12702,6832.559,93.677,455.239,453.609,0.0
53857.0,STARLINK-4809,PAYLOAD,2022-12-05 14:00:01,15.36347863,0.0001243,53.2174,237.3695,69.2821,32.0506,-0.03467,-0.01138032,0.0,0 STARLINK-4809,1 53857U 22114AR  22339.58335648 -.01138032  00000-0 -34670-1 0  9990,2 53857  53.2174 237.3695 0001243  69.2821  32.0506 15.36347863  1301,6835.057,93.729,457.771,456.072,0.0
53857.0,STARLINK-4809,PAYLOAD,2022-12-05 22:00:01,15.35534079,0.0001375,53.2176,235.8109,68.682,76.8017,-0.035579,-0.01137615,0.0,0 STARLINK-4809,1 53857U 22114AR  22339.91668981 -.01137615  00000-0 -35579-1 0  9991,2 53857  53.2176 235.8109 0001375  68.6820  76.8017 15.35534079  1303,6837.472,93.778,460.277,458.396,0.0
53857.0,STARLINK-4809,PAYLOAD,2022-12-06 08:00:01,15.345425699999998,0.0001182,53.2168,233.8639,77.6219,211.6011,-0.03803,-0.01174221,0.0,0 STARLINK-4809,1 53857U 22114AR  22340.33334491 -.01174221  00000-0 -38030-1 0  9994,2 53857  53.2168 233.8639 0001182  77.6219 211.6011 15.34542570 12868,6840.417,93.839,463.09,461.473,0.0
53857.0,STARLINK-4809,PAYLOAD,2022-12-06 14:00:01,15.33911106,0.0001332,53.2171,232.696,77.7036,153.1489,-0.037699,-0.01143664,0.0,0 STARLINK-4809,1 53857U 22114AR  22340.58335648 -.01143664  00000-0 -37699-1 0  9993,2 53857  53.2171 232.6960 0001332  77.7036 153.1489 15.33911106  1301,6842.294,93.878,465.07,463.247,0.0
53857.0,STARLINK-4809,PAYLOAD,2022-12-06 22:00:00,15.33119082,0.0001312,53.2171,231.1431,102.4334,169.5612,-0.039687,-0.01171298,0.0,0 STARLINK-4809,1 53857U 22114AR  22340.91667824 -.01171298  00000-0 -39687-1 0  9997,2 53857  53.2171 231.1431 0001312 102.4334 169.5612 15.33119082  1305,6844.65,93.926,467.413,465.617,0.0
53857.0,STARLINK-4809,PAYLOAD,2022-12-07 08:00:01,15.33019466,0.0001998,53.2138,229.2026,87.029,325.7536,-0.0010152999999999,-0.00033065,0.0,0 STARLINK-4809,1 53857U 22114AR  22341.33334491 -.00033065  00000-0 -10153-2 0  9991,2 53857  53.2138 229.2026 0001998  87.0290 325.7536 15.33019466 13023,6844.946999999999,93.932,468.179,465.444,0.0
53857.0,STARLINK-4809,PAYLOAD,2022-12-07 14:00:01,15.31463472,0.0001128,53.2173,228.0394,102.3186,249.194,-0.040357,-0.01133868,0.0,0 STARLINK-4809,1 53857U 22114AR  22341.58334491 -.01133868  00000-0 -40357-1 0  9999,2 53857  53.2173 228.0394 0001128 102.3186 249.1940 15.31463472 13056,6849.581999999999,94.028,472.22,470.675,0.0
53857.0,STARLINK-4809,PAYLOAD,2022-12-08 00:00:00,15.30364285,0.0001389,53.2179,226.1056,84.7105,44.543,-0.037183,-0.01019089,0.0,0 STARLINK-4809,1 53857U 22114AR  22342.00001157 -.01019089  00000-0 -37183-1 0  9998,2 53857  53.2179 226.1056 0001389  84.7105  44.5430 15.30364285  1306,6852.861999999999,94.095,475.67800000000005,473.775,0.0
53857.0,STARLINK-4809,PAYLOAD,2022-12-08 08:00:01,15.29635357,0.0001333,53.2174,224.5594,87.8563,78.4204,-0.042887,-0.01137743,0.0,0 STARLINK-4809,1 53857U 22114AR  22342.33334491 -.01137743  00000-0 -42887-1 0  9999,2 53857  53.2174 224.5594 0001333  87.8563  78.4204 15.29635357 13173,6855.0390000000025,94.14,477.817,475.99,0.0
53857.0,STARLINK-4809,PAYLOAD,2022-12-08 14:00:01,15.28396728,0.0001478,53.2173,223.3998,58.3343,45.4309,-0.0099122,-0.00268282,0.0,0 STARLINK-4809,1 53857U 22114AR  22342.58334491 -.00268282  00000-0 -99122-2 0  9993,2 53857  53.2173 223.3998 0001478  58.3343  45.4309 15.28396728  1303,6858.7419999999975,94.216,481.62,479.593,0.0
53857.0,STARLINK-4809,PAYLOAD,2022-12-08 22:00:01,15.28210116,0.0001457,53.2173,221.8593,63.1966,75.6501,-0.044746,-0.01136062,0.0,0 STARLINK-4809,1 53857U 22114AR  22342.91668981 -.01136062  00000-0 -44746-1 0  9996,2 53857  53.2173 221.8593 0001457  63.1966  75.6501 15.28210116  1304,6859.3,94.228,482.164,480.166,0.0
53857.0,STARLINK-4809,PAYLOAD,2022-12-09 06:00:02,15.27308708,0.0001453999999999,53.2164,220.3187,78.7813,94.4802,-0.040628,-0.0101369,0.0,0 STARLINK-4809,1 53857U 22114AR  22343.25002315 -.01013690  00000-0 -40628-1 0  9993,2 53857  53.2164 220.3187 0001454  78.7813  94.4802 15.27308708 13318,6861.999,94.283,484.861,482.866,0.0
